{
"type": "FeatureCollection",
"name": "penetrometriche",
"crs": { "type": "name", "properties": { "name": "urn:ogc:def:crs:EPSG::3857" } },
"features": [
{ "type": "Feature", "properties": { "id": 1, "allegato": "C:\\Users\\969451\\OneDrive - Gruppo Ferrovie Dello Stato\\Desktop\\BANCA DATI\\Linea Mestre - Trieste\\Km. 32+575_ok\\Indagini indirette\\penetrometica_1", "relazione": "Progetto preliminare di opere di viabilità connesse alla realizzazione di un sottopasso ferroviario", "Km": "32+575", "NProva": "1" }, "geometry": { "type": "Point", "coordinates": [ 1398096.144422716228291, 5722554.030669869855046 ] } },
{ "type": "Feature", "properties": { "id": 2, "allegato": "C:\\Users\\969451\\OneDrive - Gruppo Ferrovie Dello Stato\\Desktop\\BANCA DATI\\Linea Mestre - Trieste\\Km. 32+575_ok\\Indagini indirette\\penetrometica_2", "relazione": "Progetto preliminare di opere di viabilità connesse alla realizzazione di un sottopasso ferroviario", "Km": "32+575", "NProva": "2" }, "geometry": { "type": "Point", "coordinates": [ 1397878.143952182959765, 5722739.18387690000236 ] } },
{ "type": "Feature", "properties": { "id": 3, "allegato": "C:\\Users\\969451\\OneDrive - Gruppo Ferrovie Dello Stato\\Desktop\\BANCA DATI\\Linea Mestre - Trieste\\Km. 24+000\\indagini indirette - prove penetrometriche\\penetrometrica_3.1", "relazione": "Progetto di costruzione di nuovo ponte sul fosso colatore Meolo per l'eliminazione del passaggio a livello lungo la s.p. n.45", "Km": "24+000", "NProva": "3.1" }, "geometry": { "type": "Point", "coordinates": [ 1386602.438544584438205, 5718901.604425721801817 ] } },
{ "type": "Feature", "properties": { "id": 4, "allegato": "C:\\Users\\969451\\OneDrive - Gruppo Ferrovie Dello Stato\\Desktop\\BANCA DATI\\Linea Mestre - Trieste\\Km. 24+000\\indagini indirette - prove penetrometriche\\penetrometrica_3.2", "relazione": "Progetto di costruzione di nuovo ponte sul fosso colatore Meolo per l'eliminazione del passaggio a livello lungo la s.p. n.45", "Km": "24+000", "NProva": "3.2" }, "geometry": { "type": "Point", "coordinates": [ 1387169.504891018848866, 5718603.751395273953676 ] } },
{ "type": "Feature", "properties": { "id": 5, "allegato": "C:\\Users\\969451\\OneDrive - Gruppo Ferrovie Dello Stato\\Desktop\\BANCA DATI\\Linea Mestre - Trieste\\Km. 24+000\\indagini indirette - prove penetrometriche\\penetrometrica_3.3", "relazione": "Progetto di costruzione di nuovo ponte sul fosso colatore Meolo per l'eliminazione del passaggio a livello lungo la s.p. n.45", "Km": "24+000", "NProva": "3.3" }, "geometry": { "type": "Point", "coordinates": [ 1386554.37363248039037, 5718693.40615360531956 ] } },
{ "type": "Feature", "properties": { "id": 6, "allegato": "C:\\Users\\969451\\OneDrive - Gruppo Ferrovie Dello Stato\\Desktop\\BANCA DATI\\Linea Mestre - Trieste\\Km. 24+000\\indagini indirette\\penetrometriche\\penetrometrica_cpt1", "relazione": "Progetto di costruzione di un ponte sul canale Fossetta", "Km": "24+000", "NProva": "cpt1" }, "geometry": { "type": "Point", "coordinates": [ 1391495.097939421189949, 5720333.714669544249773 ] } },
{ "type": "Feature", "properties": { "id": 7, "allegato": "C:\\Users\\969451\\OneDrive - Gruppo Ferrovie Dello Stato\\Desktop\\BANCA DATI\\Linea Mestre - Trieste\\Km. 24+000\\indagini indirette\\penetrometriche\\penetrometrica_cpt2", "relazione": "Progetto di costruzione di un ponte sul canale Fossetta", "Km": "24+000", "NProva": "cpt2" }, "geometry": { "type": "Point", "coordinates": [ 1391506.553825207753107, 5720298.8489301931113 ] } },
{ "type": "Feature", "properties": { "id": null, "allegato": "C:\\Users\\969451\\OneDrive - Gruppo Ferrovie Dello Stato\\Desktop\\BANCA DATI\\Linea Mestre - Trieste\\Km. 28+100\\Indagini indirette\\Penetrometriche\\penetrometrica_3.4", "relazione": "Opera di attraversamento e collegamento diretto alla viabilità esistente per l'eliminazione dei passaggi a livello del territorio Comunale", "Km": "28+100", "NProva": "3.4" }, "geometry": { "type": "Point", "coordinates": [ 1391897.299146928591654, 5720444.288871481083333 ] } },
{ "type": "Feature", "properties": { "id": null, "allegato": "C:\\Users\\969451\\OneDrive - Gruppo Ferrovie Dello Stato\\Desktop\\BANCA DATI\\Linea Mestre - Trieste\\Km. 28+100\\Indagini indirette\\Penetrometriche\\penetrometrica_5.1 BIS", "relazione": "Opera di attraversamento e collegamento diretto alla viabilità esistente per l'eliminazione dei passaggi a livello del territorio Comunale", "Km": "28+100", "NProva": "5.1 BIS" }, "geometry": { "type": "Point", "coordinates": [ 1394914.679846707265824, 5721361.755898386240005 ] } },
{ "type": "Feature", "properties": { "id": null, "allegato": "C:\\Users\\969451\\OneDrive - Gruppo Ferrovie Dello Stato\\Desktop\\BANCA DATI\\Linea Mestre - Trieste\\Km. 28+100\\Indagini indirette\\Penetrometriche\\penetrometrica_5.1", "relazione": "Opera di attraversamento e collegamento diretto alla viabilità esistente per l'eliminazione dei passaggi a livello del territorio Comunale", "Km": "28+100", "NProva": "5.1" }, "geometry": { "type": "Point", "coordinates": [ 1394934.105044345371425, 5721291.028255703859031 ] } },
{ "type": "Feature", "properties": { "id": null, "allegato": "C:\\Users\\969451\\OneDrive - Gruppo Ferrovie Dello Stato\\Desktop\\BANCA DATI\\Linea Mestre - Trieste\\Km. 28+100\\Indagini indirette\\Penetrometriche\\penetrometrica_cpt1", "relazione": "Opera di attraversamento e collegamento diretto alla viabilità esistente per l'eliminazione dei passaggi a livello del territorio Comunale", "Km": "28+100", "NProva": "1" }, "geometry": { "type": "Point", "coordinates": [ 1393992.245185983367264, 5720970.512230913154781 ] } },
{ "type": "Feature", "properties": { "id": null, "allegato": "C:\\Users\\969451\\OneDrive - Gruppo Ferrovie Dello Stato\\Desktop\\BANCA DATI\\Linea Mestre - Trieste\\Km. 28+100\\Indagini indirette\\Penetrometriche\\penetrometrica_cpt2", "relazione": "Opera di attraversamento e collegamento diretto alla viabilità esistente per l'eliminazione dei passaggi a livello del territorio Comunale", "Km": "28+100", "NProva": "2" }, "geometry": { "type": "Point", "coordinates": [ 1394145.654439124977216, 5721072.120957019738853 ] } }
]
}
