{
"type": "FeatureCollection",
"name": "sondaggi",
"crs": { "type": "name", "properties": { "name": "urn:ogc:def:crs:EPSG::3857" } },
"features": [
{ "type": "Feature", "properties": { "id": 1, "allegato": "C:\\Users\\969451\\OneDrive - Gruppo Ferrovie Dello Stato\\Desktop\\BANCA DATI\\Linea Mestre - Trieste\\Km. 32+575_ok\\Indagini dirette\\sondaggio_1", "relazione": "Progetto preliminare di opere di viabilità connesse alla realizzazione di un sottopasso ferroviario", "Km": "32+575", "NProva": "1" }, "geometry": { "type": "Point", "coordinates": [ 1398070.424395631300285, 5722548.452832670882344 ] } },
{ "type": "Feature", "properties": { "id": 2, "allegato": "C:\\Users\\969451\\OneDrive - Gruppo Ferrovie Dello Stato\\Desktop\\BANCA DATI\\Linea Mestre - Trieste\\Km. 32+575_ok\\Indagini dirette\\sondaggio_2", "relazione": "Progetto preliminare di opere di viabilità connesse alla realizzazione di un sottopasso ferroviario", "Km": "32+575", "NProva": "2" }, "geometry": { "type": "Point", "coordinates": [ 1397878.298892105231062, 5722731.591820714063942 ] } },
{ "type": "Feature", "properties": { "id": 3, "allegato": "C:\\Users\\969451\\OneDrive - Gruppo Ferrovie Dello Stato\\Desktop\\BANCA DATI\\Linea Mestre - Trieste\\Km. 32+575_ok\\Indagini dirette\\sondaggio_3", "relazione": "Progetto preliminare di opere di viabilità connesse alla realizzazione di un sottopasso ferroviario", "Km": "32+575", "NProva": "3" }, "geometry": { "type": "Point", "coordinates": [ 1398180.741620236542076, 5723189.284350887872279 ] } },
{ "type": "Feature", "properties": { "id": 4, "allegato": "C:\\Users\\969451\\OneDrive - Gruppo Ferrovie Dello Stato\\Desktop\\BANCA DATI\\Linea Mestre - Trieste\\Km. 32+575_ok\\Indagini dirette\\sondaggio_4", "relazione": "Progetto preliminare di opere di viabilità connesse alla realizzazione di un sottopasso ferroviario", "Km": "32+575", "NProva": "4" }, "geometry": { "type": "Point", "coordinates": [ 1398886.647905773483217, 5723028.146831800229847 ] } },
{ "type": "Feature", "properties": { "id": 5, "allegato": "C:\\Users\\969451\\OneDrive - Gruppo Ferrovie Dello Stato\\Desktop\\BANCA DATI\\Linea Mestre - Trieste\\Km. 16+834\\Indagini dirette - Sondaggi\\Indagini dirette - Sondaggi\\sondaggio_1", "relazione": "Ponte sul Sile", "Km": "16+834", "NProva": "1" }, "geometry": { "type": "Point", "coordinates": [ 1377595.372865410987288, 5713395.806100313551724 ] } },
{ "type": "Feature", "properties": { "id": 6, "allegato": "C:\\Users\\969451\\OneDrive - Gruppo Ferrovie Dello Stato\\Desktop\\BANCA DATI\\Linea Mestre - Trieste\\Km. 16+834\\Indagini dirette - Sondaggi\\Indagini dirette - Sondaggi\\sondaggio_2", "relazione": "Ponte sul Sile", "Km": "16+834", "NProva": "2" }, "geometry": { "type": "Point", "coordinates": [ 1377627.748194809537381, 5713366.917344852350652 ] } },
{ "type": "Feature", "properties": { "id": 7, "allegato": "C:\\Users\\969451\\OneDrive - Gruppo Ferrovie Dello Stato\\Desktop\\BANCA DATI\\Linea Mestre - Trieste\\Km. 16+834\\Indagini dirette - Sondaggi\\Indagini dirette - Sondaggi\\sondaggio_3", "relazione": "Ponte sul Sile", "Km": "16+834", "NProva": "3" }, "geometry": { "type": "Point", "coordinates": [ 1377622.767374902265146, 5713410.748560035601258 ] } },
{ "type": "Feature", "properties": { "id": 8, "allegato": "C:\\Users\\969451\\OneDrive - Gruppo Ferrovie Dello Stato\\Desktop\\BANCA DATI\\Linea Mestre - Trieste\\Km. 24+000\\indagini dirette - sondaggi\\sondaggio_3.3", "relazione": "Progetto di costruzione di nuovo ponte sul fosso colatore Meolo per l'eliminazione del passaggio a livello lungo la s.p. n.45", "Km": "24+000", "NProva": "3.3" }, "geometry": { "type": "Point", "coordinates": [ 1386546.902402619598433, 5718686.931087725795805 ] } },
{ "type": "Feature", "properties": { "id": 9, "allegato": "C:\\Users\\969451\\OneDrive - Gruppo Ferrovie Dello Stato\\Desktop\\BANCA DATI\\Linea Mestre - Trieste\\Km. 24+302\\Indagini dirette -  sondaggi", "relazione": "Ponte sul fiume Meolo", "Km": "24+302", "NProva": "1" }, "geometry": { "type": "Point", "coordinates": [ 1386828.069686381379142, 5718812.572269888594747 ] } },
{ "type": "Feature", "properties": { "id": 10, "allegato": "C:\\Users\\969451\\OneDrive - Gruppo Ferrovie Dello Stato\\Desktop\\BANCA DATI\\Linea Mestre - Trieste\\Km. 27+649\\Indagini dirette - sondaggi", "relazione": "Ponte sul canale Fossetta", "Km": "27+649", "NProva": "1" }, "geometry": { "type": "Point", "coordinates": [ 1391356.382105007069185, 5720267.96784677170217 ] } },
{ "type": "Feature", "properties": { "id": 11, "allegato": "C:\\Users\\969451\\OneDrive - Gruppo Ferrovie Dello Stato\\Desktop\\BANCA DATI\\Linea Mestre - Trieste\\Km. 28+100\\Indagini dirette -  sondaggi\\sondaggio_3.4", "relazione": "Opera di attraversamento e collegamento diretto alla viabilità esistente per l'eliminazione dei passaggi a livello del territorio Comunale", "Km": "28+100", "NProva": "3.4" }, "geometry": { "type": "Point", "coordinates": [ 1391892.816409012069926, 5720442.794625509530306 ] } },
{ "type": "Feature", "properties": { "id": 12, "allegato": "C:\\Users\\969451\\OneDrive - Gruppo Ferrovie Dello Stato\\Desktop\\BANCA DATI\\Linea Mestre - Trieste\\Km. 28+100\\Indagini dirette -  sondaggi\\sondaggio_4.1", "relazione": "Opera di attraversamento e collegamento diretto alla viabilità esistente per l'eliminazione dei passaggi a livello del territorio Comunale", "Km": "28+100", "NProva": "4.1" }, "geometry": { "type": "Point", "coordinates": [ 1392975.148574845399708, 5720728.693688179366291 ] } },
{ "type": "Feature", "properties": { "id": 13, "allegato": "C:\\Users\\969451\\OneDrive - Gruppo Ferrovie Dello Stato\\Desktop\\BANCA DATI\\Linea Mestre - Trieste\\Km. 28+100\\Indagini dirette -  sondaggi\\sondaggio_5.1", "relazione": "Opera di attraversamento e collegamento diretto alla viabilità esistente per l'eliminazione dei passaggi a livello del territorio Comunale", "Km": "28+100", "NProva": "5.1" }, "geometry": { "type": "Point", "coordinates": [ 1394919.660666614538059, 5721359.265488432720304 ] } },
{ "type": "Feature", "properties": { "id": 14, "allegato": "C:\\Users\\969451\\OneDrive - Gruppo Ferrovie Dello Stato\\Desktop\\BANCA DATI\\Linea Mestre - Trieste\\Km. 31+294\\Indagini dirette -  Sondaggi\\sondaggio_1", "relazione": "Ponte sul fiume Piave", "Km": "31+294", "NProva": "1" }, "geometry": { "type": "Point", "coordinates": [ 1396278.281661866931245, 5721725.632743652909994 ] } },
{ "type": "Feature", "properties": { "id": 19, "allegato": "C:\\Users\\969451\\OneDrive - Gruppo Ferrovie Dello Stato\\Desktop\\BANCA DATI\\Linea Mestre - Trieste\\Km. 31+294\\Indagini dirette -  Sondaggi\\sondaggio_2", "relazione": "Ponte sul fiume Piave", "Km": "31+294", "NProva": "2" }, "geometry": { "type": "Point", "coordinates": [ 1396286.131848903372884, 5721696.279870387166739 ] } },
{ "type": "Feature", "properties": { "id": 18, "allegato": "C:\\Users\\969451\\OneDrive - Gruppo Ferrovie Dello Stato\\Desktop\\BANCA DATI\\Linea Mestre - Trieste\\Km. 31+294\\Indagini dirette -  Sondaggi\\sondaggio_3", "relazione": "Ponte sul fiume Piave", "Km": "31+294", "NProva": "3" }, "geometry": { "type": "Point", "coordinates": [ 1396308.829128812300041, 5721730.92308709025383 ] } },
{ "type": "Feature", "properties": { "id": 16, "allegato": "C:\\Users\\969451\\OneDrive - Gruppo Ferrovie Dello Stato\\Desktop\\BANCA DATI\\Linea Mestre - Trieste\\Km. 31+294\\Indagini dirette -  Sondaggi\\sondaggio_4", "relazione": "Ponte sul fiume Piave", "Km": "31+294", "NProva": "4" }, "geometry": { "type": "Point", "coordinates": [ 1396311.730284891091287, 5721721.366337654180825 ] } },
{ "type": "Feature", "properties": { "id": 17, "allegato": "C:\\Users\\969451\\OneDrive - Gruppo Ferrovie Dello Stato\\Desktop\\BANCA DATI\\Linea Mestre - Trieste\\Km. 31+294\\Indagini dirette -  Sondaggi\\sondaggio_5", "relazione": "Ponte sul fiume Piave", "Km": "31+294", "NProva": "5" }, "geometry": { "type": "Point", "coordinates": [ 1396313.095534810330719, 5721710.785650779493153 ] } },
{ "type": "Feature", "properties": { "id": 15, "allegato": "C:\\Users\\969451\\OneDrive - Gruppo Ferrovie Dello Stato\\Desktop\\BANCA DATI\\Linea Mestre - Trieste\\Km. 31+294\\Indagini dirette -  Sondaggi\\sondaggio_6", "relazione": "Ponte sul fiume Piave", "Km": "31+294", "NProva": "6" }, "geometry": { "type": "Point", "coordinates": [ 1396419.755684760399163, 5721737.066711727529764 ] } },
{ "type": "Feature", "properties": { "id": 20, "allegato": "C:\\Users\\969451\\OneDrive - Gruppo Ferrovie Dello Stato\\Desktop\\BANCA DATI\\Linea Mestre - Trieste\\Km. 36+859\\Prove dirette - Sondaggi\\sondaggio_2", "relazione": "Ponte sul canale Grassaga", "Km": "36+859", "NProva": "2" }, "geometry": { "type": "Point", "coordinates": [ 1402381.119457644410431, 5726695.995731329545379 ] } },
{ "type": "Feature", "properties": { "id": 21, "allegato": "C:\\Users\\969451\\OneDrive - Gruppo Ferrovie Dello Stato\\Desktop\\BANCA DATI\\Linea Mestre - Trieste\\Km. 36+859\\Prove dirette - Sondaggi\\sondaggio_1", "relazione": "Ponte sul canale Grassaga", "Km": "36+859", "NProva": "1" }, "geometry": { "type": "Point", "coordinates": [ 1402401.598206434864551, 5726748.216540745459497 ] } }
]
}
