{
"type": "FeatureCollection",
"name": "stazioni",
"crs": { "type": "name", "properties": { "name": "urn:ogc:def:crs:EPSG::3003" } },
"features": [
{ "type": "Feature", "properties": { "point": "SFMR", "nome": "ADRIA", "fase": "FASE 3" }, "geometry": { "type": "Point", "coordinates": [ 1740503.5, 4994242.299999999813735 ] } },
{ "type": "Feature", "properties": { "point": "SFMR", "nome": "CAVANELLA PO", "fase": "FASE 3" }, "geometry": { "type": "Point", "coordinates": [ 1746881.5, 4993540.200000000186265 ] } },
{ "type": "Feature", "properties": { "point": "SFMR", "nome": "LOREO", "fase": "FASE 3" }, "geometry": { "type": "Point", "coordinates": [ 1751312.4, 4994534.599999999627471 ] } },
{ "type": "Feature", "properties": { "point": "SFMR", "nome": "ROSOLINA", "fase": "FASE 3" }, "geometry": { "type": "Point", "coordinates": [ 1755026.7, 4996448.099999999627471 ] } },
{ "type": "Feature", "properties": { "point": "SFMR", "nome": "ROVIGO", "fase": "FASE 3" }, "geometry": { "type": "Point", "coordinates": [ 1718953.8, 4995260.200000000186265 ] } },
{ "type": "Feature", "properties": { "point": "NO SFMR", "nome": "ARQUA'", "fase": "NO SFMR" }, "geometry": { "type": "Point", "coordinates": [ 1716622.6, 4987296.599999999627471 ] } },
{ "type": "Feature", "properties": { "point": "NO SFMR", "nome": "COSTA", "fase": "NO SFMR" }, "geometry": { "type": "Point", "coordinates": [ 1712365.6, 4991564.599999999627471 ] } },
{ "type": "Feature", "properties": { "point": "SFMR", "nome": "CEREGNANO", "fase": "FASE 3" }, "geometry": { "type": "Point", "coordinates": [ 1726137.4, 4992573.599999999627471 ] } },
{ "type": "Feature", "properties": { "point": "SFMR", "nome": "LAMA", "fase": "FASE 3" }, "geometry": { "type": "Point", "coordinates": [ 1729493.7, 4991896.400000000372529 ] } },
{ "type": "Feature", "properties": { "point": "SFMR", "nome": "BARICETTA", "fase": "FASE 3" }, "geometry": { "type": "Point", "coordinates": [ 1735881.1, 4994095.200000000186265 ] } },
{ "type": "Feature", "properties": { "point": "NO SFMR", "nome": "CANARO", "fase": "NO SFMR" }, "geometry": { "type": "Point", "coordinates": [ 1711331.7, 4977831.900000000372529 ] } },
{ "type": "Feature", "properties": { "point": "NO SFMR", "nome": "POLESELLA", "fase": "NO SFMR" }, "geometry": { "type": "Point", "coordinates": [ 1716127.8, 4982483.0 ] } },
{ "type": "Feature", "properties": { "point": "NO SFMR", "nome": "BADIA POLESINE", "fase": "NO SFMR" }, "geometry": { "type": "Point", "coordinates": [ 1695533.7, 4996497.5 ] } },
{ "type": "Feature", "properties": { "point": "NO SFMR", "nome": "LENDINARA", "fase": "NO SFMR" }, "geometry": { "type": "Point", "coordinates": [ 1704018.4, 4995307.700000000186265 ] } },
{ "type": "Feature", "properties": { "point": "NO SFMR", "nome": "FRATTA", "fase": "NO SFMR" }, "geometry": { "type": "Point", "coordinates": [ 1708191.5, 4990652.299999999813735 ] } },
{ "type": "Feature", "properties": { "point": "NO SFMR", "nome": "OCCHIOBELLO", "fase": "NO SFMR" }, "geometry": { "type": "Point", "coordinates": [ 1707088.5, 4975121.200000000186265 ] } },
{ "type": "Feature", "properties": { "point": "SFMR", "nome": "MONTAGNANA", "fase": "COMPLEMENTARI" }, "geometry": { "type": "Point", "coordinates": [ 1693138.0, 5011227.799999999813735 ] } },
{ "type": "Feature", "properties": { "point": "SFMR", "nome": "ESTE", "fase": "COMPLEMENTARI" }, "geometry": { "type": "Point", "coordinates": [ 1709100.0, 5010925.900000000372529 ] } },
{ "type": "Feature", "properties": { "point": "SFMR", "nome": "OSPEDALETTO EUGANEO", "fase": "COMPLEMENTARI" }, "geometry": { "type": "Point", "coordinates": [ 1704690.0, 5010872.0 ] } },
{ "type": "Feature", "properties": { "point": "SFMR", "nome": "SALETTO", "fase": "COMPLEMENTARI" }, "geometry": { "type": "Point", "coordinates": [ 1699058.5, 5010806.200000000186265 ] } },
{ "type": "Feature", "properties": { "point": "SFMR", "nome": "MONSELICE", "fase": "FASE 2" }, "geometry": { "type": "Point", "coordinates": [ 1715677.4, 5013978.0 ] } },
{ "type": "Feature", "properties": { "point": "SFMR", "nome": "ORIAGO", "fase": "FASE 1" }, "geometry": { "type": "Point", "coordinates": [ 1747408.7, 5037915.599999999627471 ] } },
{ "type": "Feature", "properties": { "point": "SFMR", "nome": "CAMPOSAMPIERO", "fase": "FASE 1" }, "geometry": { "type": "Point", "coordinates": [ 1728542.5, 5050316.900000000372529 ] } },
{ "type": "Feature", "properties": { "point": "SFMR", "nome": "FRATTE CENTRO", "fase": "FASE 3" }, "geometry": { "type": "Point", "coordinates": [ 1726734.9, 5052200.099999999627471 ] } },
{ "type": "Feature", "properties": { "point": "SFMR", "nome": "VIGODARZERE", "fase": "FASE 1" }, "geometry": { "type": "Point", "coordinates": [ 1726137.0, 5037351.299999999813735 ] } },
{ "type": "Feature", "properties": { "point": "SFMR", "nome": "S. GIORGIO DELLE PERTICHE", "fase": "FASE 1" }, "geometry": { "type": "Point", "coordinates": [ 1727804.2, 5047389.599999999627471 ] } },
{ "type": "Feature", "properties": { "point": "SFMR", "nome": "CAMPODARSEGO", "fase": "FASE 1" }, "geometry": { "type": "Point", "coordinates": [ 1726654.3, 5043236.400000000372529 ] } },
{ "type": "Feature", "properties": { "point": "SFMR", "nome": "STANGHELLA", "fase": "FASE 3" }, "geometry": { "type": "Point", "coordinates": [ 1716203.9, 5001312.099999999627471 ] } },
{ "type": "Feature", "properties": { "point": "SFMR", "nome": "BATTAGLIA TERME", "fase": "FASE 2" }, "geometry": { "type": "Point", "coordinates": [ 1717888.6, 5019098.799999999813735 ] } },
{ "type": "Feature", "properties": { "point": "SFMR", "nome": "TERME EUGANEE", "fase": "FASE 2" }, "geometry": { "type": "Point", "coordinates": [ 1719170.9, 5023109.099999999627471 ] } },
{ "type": "Feature", "properties": { "point": "SFMR", "nome": "ABANO", "fase": "FASE 2" }, "geometry": { "type": "Point", "coordinates": [ 1720255.8, 5026300.099999999627471 ] } },
{ "type": "Feature", "properties": { "point": "SFMR", "nome": "PIOVE DI SACCO", "fase": "FASE 3" }, "geometry": { "type": "Point", "coordinates": [ 1738516.4, 5020202.299999999813735 ] } },
{ "type": "Feature", "properties": { "point": "SFMR", "nome": "ARZERGRANDE", "fase": "FASE 3" }, "geometry": { "type": "Point", "coordinates": [ 1738435.7, 5017977.299999999813735 ] } },
{ "type": "Feature", "properties": { "point": "SFMR", "nome": "VILLA DEL CONTE", "fase": "FASE 3" }, "geometry": { "type": "Point", "coordinates": [ 1722480.6, 5054407.799999999813735 ] } },
{ "type": "Feature", "properties": { "point": "SFMR", "nome": "CITTADELLA", "fase": "FASE 2" }, "geometry": { "type": "Point", "coordinates": [ 1717433.1, 5058288.5 ] } },
{ "type": "Feature", "properties": { "point": "SFMR", "nome": "FONTANIVA", "fase": "FASE 2" }, "geometry": { "type": "Point", "coordinates": [ 1714293.8, 5057131.900000000372529 ] } },
{ "type": "Feature", "properties": { "point": "SFMR", "nome": "CARMIGNANO DI BRENTA", "fase": "FASE 2" }, "geometry": { "type": "Point", "coordinates": [ 1711675.4, 5055560.5 ] } },
{ "type": "Feature", "properties": { "point": "SFMR", "nome": "GALLIERA VENETA - TOMBOLO", "fase": "FASE 2" }, "geometry": { "type": "Point", "coordinates": [ 1720373.3, 5059389.799999999813735 ] } },
{ "type": "Feature", "properties": { "point": "SFMR", "nome": "S. PIETRO IN GU", "fase": "FASE 2" }, "geometry": { "type": "Point", "coordinates": [ 1708487.1, 5053665.400000000372529 ] } },
{ "type": "Feature", "properties": { "point": "SFMR", "nome": "S. MARTINO DI LUPARI", "fase": "FASE 2" }, "geometry": { "type": "Point", "coordinates": [ 1722645.2, 5059822.299999999813735 ] } },
{ "type": "Feature", "properties": { "point": "SFMR", "nome": "VIGONZA - PIANIGA", "fase": "FASE 1" }, "geometry": { "type": "Point", "coordinates": [ 1736082.2, 5036601.400000000372529 ] } },
{ "type": "Feature", "properties": { "point": "SFMR", "nome": "PIOMBINO DESE", "fase": "FASE 1" }, "geometry": { "type": "Point", "coordinates": [ 1733986.5, 5055058.200000000186265 ] } },
{ "type": "Feature", "properties": { "point": "NUOVE", "nome": "PONTE DI BRENTA", "fase": "FASE 1" }, "geometry": { "type": "Point", "coordinates": [ 1730616.8, 5034821.099999999627471 ] } },
{ "type": "Feature", "properties": { "point": "SFMR", "nome": "PADOVA", "fase": "FASE 1" }, "geometry": { "type": "Point", "coordinates": [ 1725355.3, 5033358.400000000372529 ] } },
{ "type": "Feature", "properties": { "point": "SFMR", "nome": "MESTRINO", "fase": "FASE 3" }, "geometry": { "type": "Point", "coordinates": [ 1716898.1, 5037544.900000000372529 ] } },
{ "type": "Feature", "properties": { "point": "SFMR", "nome": "GRISIGNANO DI ZOCCO", "fase": "FASE 3" }, "geometry": { "type": "Point", "coordinates": [ 1711859.0, 5040541.599999999627471 ] } },
{ "type": "Feature", "properties": { "point": "SFMR", "nome": "SCHIO", "fase": "FASE 3" }, "geometry": { "type": "Point", "coordinates": [ 1683514.6, 5064621.400000000372529 ] } },
{ "type": "Feature", "properties": { "point": "SFMR", "nome": "DUEVILLE", "fase": "FASE 3" }, "geometry": { "type": "Point", "coordinates": [ 1698491.5, 5056694.0 ] } },
{ "type": "Feature", "properties": { "point": "NO SFMR", "nome": "ORSAGO", "fase": "NO SFMR" }, "geometry": { "type": "Point", "coordinates": [ 1765813.7, 5091483.700000000186265 ] } },
{ "type": "Feature", "properties": { "point": "SFMR", "nome": "RESANA", "fase": "FASE 1" }, "geometry": { "type": "Point", "coordinates": [ 1731085.2, 5057664.200000000186265 ] } },
{ "type": "Feature", "properties": { "point": "SFMR", "nome": "BOSCHI S. ANNA", "fase": "COMPLEMENTARI" }, "geometry": { "type": "Point", "coordinates": [ 1685546.5, 5009813.900000000372529 ] } },
{ "type": "Feature", "properties": { "point": "SFMR", "nome": "BUTTAPIETRA", "fase": "OCCIDENTALE" }, "geometry": { "type": "Point", "coordinates": [ 1655790.8, 5022550.5 ] } },
{ "type": "Feature", "properties": { "point": "NUOVE", "nome": "VILLAVERLA - MONTECCHIO", "fase": "FASE 3" }, "geometry": { "type": "Point", "coordinates": [ 1696690.6, 5059072.700000000186265 ] } },
{ "type": "Feature", "properties": { "point": "SFMR", "nome": "THIENE", "fase": "FASE 3" }, "geometry": { "type": "Point", "coordinates": [ 1692828.4, 5063721.400000000372529 ] } },
{ "type": "Feature", "properties": { "point": "SFMR", "nome": "MARANO VICENTINO", "fase": "FASE 3" }, "geometry": { "type": "Point", "coordinates": [ 1688771.2, 5064367.5 ] } },
{ "type": "Feature", "properties": { "point": "SFMR", "nome": "BASSANO DEL GRAPPA", "fase": "FASE 3" }, "geometry": { "type": "Point", "coordinates": [ 1713201.0, 5071797.200000000186265 ] } },
{ "type": "Feature", "properties": { "point": "SFMR", "nome": "ROSA'", "fase": "FASE 3" }, "geometry": { "type": "Point", "coordinates": [ 1716056.1, 5066743.099999999627471 ] } },
{ "type": "Feature", "properties": { "point": "SFMR", "nome": "CASSOLA", "fase": "FASE 3" }, "geometry": { "type": "Point", "coordinates": [ 1717514.1, 5068149.599999999627471 ] } },
{ "type": "Feature", "properties": { "point": "SFMR", "nome": "ROSSANO VENETO", "fase": "FASE 3" }, "geometry": { "type": "Point", "coordinates": [ 1716795.8, 5064748.5 ] } },
{ "type": "Feature", "properties": { "point": "SFMR", "nome": "QUERO - VAS", "fase": "FASE 4" }, "geometry": { "type": "Point", "coordinates": [ 1726400.0, 5091465.799999999813735 ] } },
{ "type": "Feature", "properties": { "point": "SFMR", "nome": "VILLA DEL BOSCO", "fase": "FASE 3" }, "geometry": { "type": "Point", "coordinates": [ 1739550.7, 5011372.299999999813735 ] } },
{ "type": "Feature", "properties": { "point": "SFMR", "nome": "LERINO", "fase": "FASE 3" }, "geometry": { "type": "Point", "coordinates": [ 1705874.1, 5043992.599999999627471 ] } },
{ "type": "Feature", "properties": { "point": "SFMR", "nome": "VICENZA", "fase": "FASE 2" }, "geometry": { "type": "Point", "coordinates": [ 1698390.9, 5046234.700000000186265 ] } },
{ "type": "Feature", "properties": { "point": "SFMR", "nome": "LISIERA", "fase": "FASE 2" }, "geometry": { "type": "Point", "coordinates": [ 1703720.7, 5050581.299999999813735 ] } },
{ "type": "Feature", "properties": { "point": "SFMR", "nome": "CAVAZZALE", "fase": "FASE 3" }, "geometry": { "type": "Point", "coordinates": [ 1700475.3, 5052436.0 ] } },
{ "type": "Feature", "properties": { "point": "SFMR", "nome": "ALTAVILLA - TAVERNELLE", "fase": "FASE 4" }, "geometry": { "type": "Point", "coordinates": [ 1691751.3, 5042742.299999999813735 ] } },
{ "type": "Feature", "properties": { "point": "SFMR", "nome": "DOLCE'", "fase": "OCCIDENTALE" }, "geometry": { "type": "Point", "coordinates": [ 1644355.7, 5051481.5 ] } },
{ "type": "Feature", "properties": { "point": "SFMR", "nome": "MONTEBELLO", "fase": "FASE 4" }, "geometry": { "type": "Point", "coordinates": [ 1686983.7, 5035994.299999999813735 ] } },
{ "type": "Feature", "properties": { "point": "SFMR", "nome": "LONIGO", "fase": "FASE 4" }, "geometry": { "type": "Point", "coordinates": [ 1683509.2, 5031552.400000000372529 ] } },
{ "type": "Feature", "properties": { "point": "SFMR", "nome": "SAN NAZARIO", "fase": "FASE 4" }, "geometry": { "type": "Point", "coordinates": [ 1709024.6, 5079637.799999999813735 ] } },
{ "type": "Feature", "properties": { "point": "SFMR", "nome": "SOLAGNA", "fase": "FASE 4" }, "geometry": { "type": "Point", "coordinates": [ 1711458.4, 5077165.5 ] } },
{ "type": "Feature", "properties": { "point": "SFMR", "nome": "POVE DEL GRAPPA - CAMPESE", "fase": "FASE 4" }, "geometry": { "type": "Point", "coordinates": [ 1711399.7, 5075788.299999999813735 ] } },
{ "type": "Feature", "properties": { "point": "SFMR", "nome": "PRIMOLANO", "fase": "FASE 4" }, "geometry": { "type": "Point", "coordinates": [ 1709276.8, 5093788.400000000372529 ] } },
{ "type": "Feature", "properties": { "point": "SFMR", "nome": "CISMON DEL GRAPPA", "fase": "FASE 4" }, "geometry": { "type": "Point", "coordinates": [ 1711666.7, 5088771.599999999627471 ] } },
{ "type": "Feature", "properties": { "point": "SFMR", "nome": "SAN MARINO", "fase": "FASE 4" }, "geometry": { "type": "Point", "coordinates": [ 1708874.3, 5086236.5 ] } },
{ "type": "Feature", "properties": { "point": "SFMR", "nome": "S. STINO DI LIVENZA", "fase": "FASE 2" }, "geometry": { "type": "Point", "coordinates": [ 1786610.0, 5069704.200000000186265 ] } },
{ "type": "Feature", "properties": { "point": "SFMR", "nome": "LISON", "fase": "FASE 2" }, "geometry": { "type": "Point", "coordinates": [ 1792471.9, 5073380.700000000186265 ] } },
{ "type": "Feature", "properties": { "point": "SFMR", "nome": "PORTOGRUARO", "fase": "FASE 2" }, "geometry": { "type": "Point", "coordinates": [ 1797915.8, 5076912.900000000372529 ] } },
{ "type": "Feature", "properties": { "point": "NO SFMR", "nome": "FOSSALTA DI PORTOGRUARO", "fase": "NO SFMR" }, "geometry": { "type": "Point", "coordinates": [ 1803762.0, 5077424.5 ] } },
{ "type": "Feature", "properties": { "point": "SFMR", "nome": "QUARTO D'ALTINO", "fase": "FASE 1" }, "geometry": { "type": "Point", "coordinates": [ 1762562.7, 5052318.700000000186265 ] } },
{ "type": "Feature", "properties": { "point": "SFMR", "nome": "CEGGIA", "fase": "FASE 2" }, "geometry": { "type": "Point", "coordinates": [ 1782998.9, 5065887.0 ] } },
{ "type": "Feature", "properties": { "point": "SFMR", "nome": "S. DONA' DI PIAVE - JESOLO", "fase": "FASE 2" }, "geometry": { "type": "Point", "coordinates": [ 1777460.0, 5060229.599999999627471 ] } },
{ "type": "Feature", "properties": { "point": "NUOVE", "nome": "FOSSALTA DI PIAVE", "fase": "FASE 2" }, "geometry": { "type": "Point", "coordinates": [ 1772905.2, 5058279.0 ] } },
{ "type": "Feature", "properties": { "point": "SFMR", "nome": "MEOLO", "fase": "FASE 2" }, "geometry": { "type": "Point", "coordinates": [ 1769347.6, 5056883.799999999813735 ] } },
{ "type": "Feature", "properties": { "point": "SFMR", "nome": "CAMPAGNA LUPIA", "fase": "FASE 3" }, "geometry": { "type": "Point", "coordinates": [ 1742270.2, 5028367.599999999627471 ] } },
{ "type": "Feature", "properties": { "point": "SFMR", "nome": "MESTRE", "fase": "FASE 1" }, "geometry": { "type": "Point", "coordinates": [ 1752559.3, 5041647.799999999813735 ] } },
{ "type": "Feature", "properties": { "point": "SFMR", "nome": "PORTO MARGHERA", "fase": "FASE 1" }, "geometry": { "type": "Point", "coordinates": [ 1754668.1, 5040528.099999999627471 ] } },
{ "type": "Feature", "properties": { "point": "SFMR", "nome": "VENEZIA S.LUCIA", "fase": "FASE 1" }, "geometry": { "type": "Point", "coordinates": [ 1759725.4, 5037415.0 ] } },
{ "type": "Feature", "properties": { "point": "SFMR", "nome": "CAVANELLA D'ADIGE", "fase": "FASE 3" }, "geometry": { "type": "Point", "coordinates": [ 1755617.4, 5000463.599999999627471 ] } },
{ "type": "Feature", "properties": { "point": "SFMR", "nome": "S. ANNA DI CHIOGGIA", "fase": "FASE 3" }, "geometry": { "type": "Point", "coordinates": [ 1756861.7, 5004352.5 ] } },
{ "type": "Feature", "properties": { "point": "SFMR", "nome": "CAVARZERE CENTRO", "fase": "FASE 3" }, "geometry": { "type": "Point", "coordinates": [ 1743121.9, 5002703.700000000186265 ] } },
{ "type": "Feature", "properties": { "point": "SFMR", "nome": "CAVARZERE", "fase": "FASE 3" }, "geometry": { "type": "Point", "coordinates": [ 1742570.8, 5004016.0 ] } },
{ "type": "Feature", "properties": { "point": "SFMR", "nome": "CONA VENETA", "fase": "FASE 3" }, "geometry": { "type": "Point", "coordinates": [ 1739620.3, 5009335.599999999627471 ] } },
{ "type": "Feature", "properties": { "point": "SFMR", "nome": "DOLO", "fase": "FASE 1" }, "geometry": { "type": "Point", "coordinates": [ 1740181.1, 5037933.200000000186265 ] } },
{ "type": "Feature", "properties": { "point": "SFMR", "nome": "MIRA - MIRANO", "fase": "FASE 1" }, "geometry": { "type": "Point", "coordinates": [ 1743899.1, 5039149.900000000372529 ] } },
{ "type": "Feature", "properties": { "point": "SFMR", "nome": "NOALE - SCORZE'", "fase": "FASE 1" }, "geometry": { "type": "Point", "coordinates": [ 1740043.8, 5049095.299999999813735 ] } },
{ "type": "Feature", "properties": { "point": "SFMR", "nome": "SALZANO - ROBEGANO", "fase": "FASE 1" }, "geometry": { "type": "Point", "coordinates": [ 1742984.9, 5047155.200000000186265 ] } },
{ "type": "Feature", "properties": { "point": "SFMR", "nome": "MAERNE DI MARTELLAGO", "fase": "FASE 1" }, "geometry": { "type": "Point", "coordinates": [ 1746031.350038250209764, 5045058.633392833173275 ] } },
{ "type": "Feature", "properties": { "point": "SFMR", "nome": "MOGLIANO VENETO", "fase": "FASE 1" }, "geometry": { "type": "Point", "coordinates": [ 1752314.0, 5050516.5 ] } },
{ "type": "Feature", "properties": { "point": "SFMR", "nome": "CORNUDA", "fase": "FASE 4" }, "geometry": { "type": "Point", "coordinates": [ 1734030.0, 5079988.400000000372529 ] } },
{ "type": "Feature", "properties": { "point": "SFMR", "nome": "CONEGLIANO", "fase": "FASE 2" }, "geometry": { "type": "Point", "coordinates": [ 1756003.1, 5086546.200000000186265 ] } },
{ "type": "Feature", "properties": { "point": "SFMR", "nome": "MONTEBELLUNA", "fase": "FASE 3" }, "geometry": { "type": "Point", "coordinates": [ 1737445.0, 5073791.5 ] } },
{ "type": "Feature", "properties": { "point": "SFMR", "nome": "TREVIGNANO - SIGNORESSA", "fase": "FASE 3" }, "geometry": { "type": "Point", "coordinates": [ 1741391.2, 5070768.299999999813735 ] } },
{ "type": "Feature", "properties": { "point": "SFMR", "nome": "POSTIOMA", "fase": "FASE 3" }, "geometry": { "type": "Point", "coordinates": [ 1745054.0, 5067328.599999999627471 ] } },
{ "type": "Feature", "properties": { "point": "NUOVE", "nome": "PAESE - CASTAGNOLE", "fase": "FASE 3" }, "geometry": { "type": "Point", "coordinates": [ 1747847.1, 5064697.900000000372529 ] } },
{ "type": "Feature", "properties": { "point": "SFMR", "nome": "ALBAREDO", "fase": "FASE 2" }, "geometry": { "type": "Point", "coordinates": [ 1734826.1, 5061846.5 ] } },
{ "type": "Feature", "properties": { "point": "SFMR", "nome": "ISTRANA", "fase": "FASE 2" }, "geometry": { "type": "Point", "coordinates": [ 1741680.0, 5062804.099999999627471 ] } },
{ "type": "Feature", "properties": { "point": "SFMR", "nome": "PAESE", "fase": "FASE 2" }, "geometry": { "type": "Point", "coordinates": [ 1746316.6, 5062160.5 ] } },
{ "type": "Feature", "properties": { "point": "SFMR", "nome": "TREVISO CENTRALE", "fase": "FASE 1" }, "geometry": { "type": "Point", "coordinates": [ 1752844.4, 5061390.0 ] } },
{ "type": "Feature", "properties": { "point": "SFMR", "nome": "PREGANZIOL", "fase": "FASE 1" }, "geometry": { "type": "Point", "coordinates": [ 1752039.9, 5055150.5 ] } },
{ "type": "Feature", "properties": { "point": "SFMR", "nome": "LANCENIGO", "fase": "FASE 2" }, "geometry": { "type": "Point", "coordinates": [ 1754233.0, 5067045.299999999813735 ] } },
{ "type": "Feature", "properties": { "point": "SFMR", "nome": "SPRESIANO", "fase": "FASE 2" }, "geometry": { "type": "Point", "coordinates": [ 1754000.9, 5074585.200000000186265 ] } },
{ "type": "Feature", "properties": { "point": "NUOVE", "nome": "SUSEGANA", "fase": "FASE 2" }, "geometry": { "type": "Point", "coordinates": [ 1753030.9, 5079142.799999999813735 ] } },
{ "type": "Feature", "properties": { "point": "SFMR", "nome": "VITTORIO VENETO", "fase": "FASE 4" }, "geometry": { "type": "Point", "coordinates": [ 1755099.6, 5098204.700000000186265 ] } },
{ "type": "Feature", "properties": { "point": "SFMR", "nome": "SOFFRATTA", "fase": "FASE 4" }, "geometry": { "type": "Point", "coordinates": [ 1755560.6, 5096785.400000000372529 ] } },
{ "type": "Feature", "properties": { "point": "SFMR", "nome": "PEDEROBBA - CAVASO - POSSAGNO", "fase": "FASE 4" }, "geometry": { "type": "Point", "coordinates": [ 1730157.1, 5084721.400000000372529 ] } },
{ "type": "Feature", "properties": { "point": "SFMR", "nome": "CASTELLO DI GODEGO", "fase": "FASE 3" }, "geometry": { "type": "Point", "coordinates": [ 1724106.0, 5063427.5 ] } },
{ "type": "Feature", "properties": { "point": "SFMR", "nome": "CASTELFRANCO VENETO", "fase": "FASE 1" }, "geometry": { "type": "Point", "coordinates": [ 1728595.4, 5061200.599999999627471 ] } },
{ "type": "Feature", "properties": { "point": "SFMR", "nome": "FANZOLO", "fase": "FASE 3" }, "geometry": { "type": "Point", "coordinates": [ 1732946.3, 5066030.599999999627471 ] } },
{ "type": "Feature", "properties": { "point": "NO SFMR", "nome": "PIANZANO", "fase": "NO SFMR" }, "geometry": { "type": "Point", "coordinates": [ 1762777.3, 5090017.099999999627471 ] } },
{ "type": "Feature", "properties": { "point": "SFMR", "nome": "NOVE", "fase": "FASE 4" }, "geometry": { "type": "Point", "coordinates": [ 1756374.1, 5105084.900000000372529 ] } },
{ "type": "Feature", "properties": { "point": "NUOVE", "nome": "FRADELETTO - CARPENEDO", "fase": "FASE 1" }, "geometry": { "type": "Point", "coordinates": [ 1753753.0, 5044399.900000000372529 ] } },
{ "type": "Feature", "properties": { "point": "NO SFMR", "nome": "PESCHIERA DEL GARDA", "fase": "NO SFMR" }, "geometry": { "type": "Point", "coordinates": [ 1633189.4, 5033110.299999999813735 ] } },
{ "type": "Feature", "properties": { "point": "SFMR", "nome": "DOMEGLIARA - S. AMBROGIO", "fase": "OCCIDENTALE" }, "geometry": { "type": "Point", "coordinates": [ 1642198.7, 5042619.299999999813735 ] } },
{ "type": "Feature", "properties": { "point": "SFMR", "nome": "CERAINO", "fase": "OCCIDENTALE" }, "geometry": { "type": "Point", "coordinates": [ 1642829.3, 5048829.099999999627471 ] } },
{ "type": "Feature", "properties": { "point": "SFMR", "nome": "VERONA PORTA NUOVA", "fase": "FASE 4" }, "geometry": { "type": "Point", "coordinates": [ 1655137.4, 5032455.799999999813735 ] } },
{ "type": "Feature", "properties": { "point": "NUOVE", "nome": "PORTA EST", "fase": "FASE 1" }, "geometry": { "type": "Point", "coordinates": [ 1759656.0, 5049666.0 ] } },
{ "type": "Feature", "properties": { "point": "NO SFMR", "nome": "SOMMACAMPAGNA - SONA", "fase": "NO SFMR" }, "geometry": { "type": "Point", "coordinates": [ 1644294.1, 5031987.400000000372529 ] } },
{ "type": "Feature", "properties": { "point": "NO SFMR", "nome": "CASTELNUOVO DEL GARDA", "fase": "NO SFMR" }, "geometry": { "type": "Point", "coordinates": [ 1637598.6, 5032338.0 ] } },
{ "type": "Feature", "properties": { "point": "NO SFMR", "nome": "VILLABARTOLOMEA", "fase": "NO SFMR" }, "geometry": { "type": "Point", "coordinates": [ 1684670.8, 5002701.400000000372529 ] } },
{ "type": "Feature", "properties": { "point": "NO SFMR", "nome": "CASTAGNARO", "fase": "NO SFMR" }, "geometry": { "type": "Point", "coordinates": [ 1689107.2, 4999078.299999999813735 ] } },
{ "type": "Feature", "properties": { "point": "SFMR", "nome": "BEVILACQUA", "fase": "COMPLEMENTARI" }, "geometry": { "type": "Point", "coordinates": [ 1688144.0, 5011274.799999999813735 ] } },
{ "type": "Feature", "properties": { "point": "SFMR", "nome": "S. BONIFACIO", "fase": "FASE 4" }, "geometry": { "type": "Point", "coordinates": [ 1678013.0, 5030213.700000000186265 ] } },
{ "type": "Feature", "properties": { "point": "SFMR", "nome": "BOION", "fase": "FASE 3" }, "geometry": { "type": "Point", "coordinates": [ 1741443.3, 5025059.099999999627471 ] } },
{ "type": "Feature", "properties": { "point": "SFMR", "nome": "CASELLO N. 8", "fase": "FASE 3" }, "geometry": { "type": "Point", "coordinates": [ 1742164.0, 5027307.599999999627471 ] } },
{ "type": "Feature", "properties": { "point": "SFMR", "nome": "CALDIERO", "fase": "FASE 4" }, "geometry": { "type": "Point", "coordinates": [ 1669804.9, 5031238.099999999627471 ] } },
{ "type": "Feature", "properties": { "point": "SFMR", "nome": "LEGNAGO", "fase": "OCCIDENTALE" }, "geometry": { "type": "Point", "coordinates": [ 1681099.0, 5006551.400000000372529 ] } },
{ "type": "Feature", "properties": { "point": "NO SFMR", "nome": "SANGUINETTO", "fase": "NO SFMR" }, "geometry": { "type": "Point", "coordinates": [ 1669107.2, 5006193.700000000186265 ] } },
{ "type": "Feature", "properties": { "point": "SFMR", "nome": "VERONA PORTA VESCOVO", "fase": "FASE 4" }, "geometry": { "type": "Point", "coordinates": [ 1657927.5, 5033342.900000000372529 ] } },
{ "type": "Feature", "properties": { "point": "SFMR", "nome": "S. MARTINO BUONALBERGO", "fase": "FASE 4" }, "geometry": { "type": "Point", "coordinates": [ 1663462.2, 5031909.200000000186265 ] } },
{ "type": "Feature", "properties": { "point": "NO SFMR", "nome": "NOGARA", "fase": "NO SFMR" }, "geometry": { "type": "Point", "coordinates": [ 1662741.3, 5005012.900000000372529 ] } },
{ "type": "Feature", "properties": { "point": "NO SFMR", "nome": "BONFERRARO", "fase": "NO SFMR" }, "geometry": { "type": "Point", "coordinates": [ 1657888.6, 5005534.299999999813735 ] } },
{ "type": "Feature", "properties": { "point": "NO SFMR", "nome": "RONCANOVA DI GAZZO VERONESE", "fase": "NO SFMR" }, "geometry": { "type": "Point", "coordinates": [ 1664980.8, 5000906.099999999627471 ] } },
{ "type": "Feature", "properties": { "point": "NO SFMR", "nome": "MOZZECANE", "fase": "NO SFMR" }, "geometry": { "type": "Point", "coordinates": [ 1642981.3, 5018648.200000000186265 ] } },
{ "type": "Feature", "properties": { "point": "SFMR", "nome": "CEREA", "fase": "OCCIDENTALE" }, "geometry": { "type": "Point", "coordinates": [ 1673978.3, 5007127.700000000186265 ] } },
{ "type": "Feature", "properties": { "point": "SFMR", "nome": "VILLAFRANCA DI VERONA", "fase": "OCCIDENTALE" }, "geometry": { "type": "Point", "coordinates": [ 1644868.2, 5023498.900000000372529 ] } },
{ "type": "Feature", "properties": { "point": "SFMR", "nome": "BOVOLONE", "fase": "OCCIDENTALE" }, "geometry": { "type": "Point", "coordinates": [ 1666737.8, 5013443.799999999813735 ] } },
{ "type": "Feature", "properties": { "point": "SFMR", "nome": "ISOLA DELLA SCALA", "fase": "OCCIDENTALE" }, "geometry": { "type": "Point", "coordinates": [ 1657964.6, 5014876.299999999813735 ] } },
{ "type": "Feature", "properties": { "point": "SFMR", "nome": "MIRA BUSE", "fase": "FASE 1" }, "geometry": { "type": "Point", "coordinates": [ 1745591.1, 5035212.200000000186265 ] } },
{ "type": "Feature", "properties": { "point": "SFMR", "nome": "CASELLO N. 11", "fase": "FASE 3" }, "geometry": { "type": "Point", "coordinates": [ 1742473.3, 5030371.799999999813735 ] } },
{ "type": "Feature", "properties": { "point": "SFMR", "nome": "CAMPOLONGO MAGGIORE", "fase": "FASE 3" }, "geometry": { "type": "Point", "coordinates": [ 1739392.1, 5022935.5 ] } },
{ "type": "Feature", "properties": { "point": "SFMR", "nome": "CHIOGGIA", "fase": "FASE 3" }, "geometry": { "type": "Point", "coordinates": [ 1757212.8, 5011523.400000000372529 ] } },
{ "type": "Feature", "properties": { "point": "SFMR", "nome": "CARPANE' - VALSTAGNA", "fase": "FASE 4" }, "geometry": { "type": "Point", "coordinates": [ 1706759.3, 5081650.099999999627471 ] } },
{ "type": "Feature", "properties": { "point": "SFMR", "nome": "ALANO - FENER - VALDOBBIADENE", "fase": "FASE 4" }, "geometry": { "type": "Point", "coordinates": [ 1728444.3, 5087505.799999999813735 ] } },
{ "type": "Feature", "properties": { "point": "SFMR", "nome": "FAE' - FORTOGNA", "fase": "FASE 4" }, "geometry": { "type": "Point", "coordinates": [ 1753997.8, 5125946.299999999813735 ] } },
{ "type": "Feature", "properties": { "point": "SFMR", "nome": "LONGARONE - ZOLDO", "fase": "FASE 4" }, "geometry": { "type": "Point", "coordinates": [ 1754479.4, 5129057.799999999813735 ] } },
{ "type": "Feature", "properties": { "point": "SFMR", "nome": "CASTELLAVAZZO", "fase": "FASE 4" }, "geometry": { "type": "Point", "coordinates": [ 1755023.3, 5131427.200000000186265 ] } },
{ "type": "Feature", "properties": { "point": "SFMR", "nome": "OSPITALE DI CADORE", "fase": "FASE 4" }, "geometry": { "type": "Point", "coordinates": [ 1755459.9, 5135639.900000000372529 ] } },
{ "type": "Feature", "properties": { "point": "SFMR", "nome": "FELTRE", "fase": "FASE 4" }, "geometry": { "type": "Point", "coordinates": [ 1725413.3, 5099624.700000000186265 ] } },
{ "type": "Feature", "properties": { "point": "SFMR", "nome": "BUSCHE - LENTIAI - MEL", "fase": "FASE 4" }, "geometry": { "type": "Point", "coordinates": [ 1730557.3, 5102803.599999999627471 ] } },
{ "type": "Feature", "properties": { "point": "SFMR", "nome": "CADOLA - SOCCHER", "fase": "FASE 4" }, "geometry": { "type": "Point", "coordinates": [ 1755589.5, 5118696.799999999813735 ] } },
{ "type": "Feature", "properties": { "point": "SFMR", "nome": "STAZIONE PER L'ALPAGO", "fase": "FASE 4" }, "geometry": { "type": "Point", "coordinates": [ 1756137.5, 5114732.400000000372529 ] } },
{ "type": "Feature", "properties": { "point": "SFMR", "nome": "S. CROCE DEL LAGO", "fase": "FASE 4" }, "geometry": { "type": "Point", "coordinates": [ 1757392.4, 5109930.099999999627471 ] } },
{ "type": "Feature", "properties": { "point": "SFMR", "nome": "PERAROLO DI CADORE", "fase": "FASE 4" }, "geometry": { "type": "Point", "coordinates": [ 1757762.0, 5142465.900000000372529 ] } },
{ "type": "Feature", "properties": { "point": "SFMR", "nome": "S. GIUSTINA - CESIO", "fase": "FASE 4" }, "geometry": { "type": "Point", "coordinates": [ 1735309.2, 5107198.099999999627471 ] } },
{ "type": "Feature", "properties": { "point": "SFMR", "nome": "SEDICO - BRIBANO", "fase": "FASE 4" }, "geometry": { "type": "Point", "coordinates": [ 1738610.5, 5109297.5 ] } },
{ "type": "Feature", "properties": { "point": "SFMR", "nome": "BELLUNO", "fase": "FASE 4" }, "geometry": { "type": "Point", "coordinates": [ 1747921.4, 5114826.700000000186265 ] } },
{ "type": "Feature", "properties": { "point": "SFMR", "nome": "PONTE NELLE ALPI - POLPET", "fase": "FASE 4" }, "geometry": { "type": "Point", "coordinates": [ 1752959.3, 5119563.200000000186265 ] } },
{ "type": "Feature", "properties": { "point": "NO SFMR", "nome": "TEGLIO VENETO", "fase": "NO SFMR" }, "geometry": { "type": "Point", "coordinates": [ 1799864.3, 5080170.299999999813735 ] } },
{ "type": "Feature", "properties": { "point": "SFMR", "nome": "CALALZO - PIEVE DI CADORE - CORTINA - DOBBIACO", "fase": "FASE 4" }, "geometry": { "type": "Point", "coordinates": [ 1760308.3, 5148977.0 ] } },
{ "type": "Feature", "properties": { "point": "SFMR", "nome": "S. ELENA - ESTE", "fase": "FASE 3" }, "geometry": { "type": "Point", "coordinates": [ 1712766.6, 5007702.099999999627471 ] } },
{ "type": "Feature", "properties": { "point": "SFMR", "nome": "LEVADA", "fase": "FASE 4" }, "geometry": { "type": "Point", "coordinates": [ 1733425.7, 5081922.400000000372529 ] } },
{ "type": "Feature", "properties": { "point": "NUOVE", "nome": "TERRAGLIO", "fase": "FASE 1" }, "geometry": { "type": "Point", "coordinates": [ 1752001.62467631069012, 5045023.186182498931885 ] } },
{ "type": "Feature", "properties": { "point": "SFMR", "nome": "ODERZO", "fase": "FASE 3" }, "geometry": { "type": "Point", "coordinates": [ 1771781.108163614058867, 5075009.912050954066217 ] } },
{ "type": "Feature", "properties": { "point": "SFMR", "nome": "PONTELONGO", "fase": "FASE 3" }, "geometry": { "type": "Point", "coordinates": [ 1737662.2, 5015622.900000000372529 ] } },
{ "type": "Feature", "properties": { "point": "SFMR", "nome": "BRONDOLO", "fase": "FASE 3" }, "geometry": { "type": "Point", "coordinates": [ 1757392.881850830279291, 5007740.505951684899628 ] } },
{ "type": "Feature", "properties": { "point": "NUOVE", "nome": "SAN LAZZARO", "fase": "FASE 1" }, "geometry": { "type": "Point", "coordinates": [ 1728213.243858522735536, 5034064.934884881600738 ] } },
{ "type": "Feature", "properties": { "point": "SFMR", "nome": "COREZZOLA OVEST", "fase": "FASE 3" }, "geometry": { "type": "Point", "coordinates": [ 1738416.44291226612404, 5013396.762409813702106 ] } },
{ "type": "Feature", "properties": { "point": "SFMR", "nome": "PONTELONGO FERMATA", "fase": "FASE 3" }, "geometry": { "type": "Point", "coordinates": [ 1737629.4, 5014379.900000000372529 ] } },
{ "type": "Feature", "properties": { "point": "NUOVE", "nome": "PORTA OVEST", "fase": "FASE 1" }, "geometry": { "type": "Point", "coordinates": [ 1748503.135423802537844, 5039058.323333954438567 ] } },
{ "type": "Feature", "properties": { "point": "NUOVE", "nome": "OLIMPIA", "fase": "FASE 1" }, "geometry": { "type": "Point", "coordinates": [ 1752646.560212831944227, 5043201.74812298361212 ] } },
{ "type": "Feature", "properties": { "point": "NUOVE", "nome": "GAZZERA", "fase": "FASE 1" }, "geometry": { "type": "Point", "coordinates": [ 1751847.827723380643874, 5042253.253291759639978 ] } },
{ "type": "Feature", "properties": { "point": "NUOVE", "nome": "MIRANESE", "fase": "FASE 1" }, "geometry": { "type": "Point", "coordinates": [ 1748003.927617895416915, 5041754.045485853217542 ] } },
{ "type": "Feature", "properties": { "point": "NUOVE", "nome": "MAROCCO", "fase": "FASE 1" }, "geometry": { "type": "Point", "coordinates": [ 1752249.207383037079126, 5047765.036558945663273 ] } },
{ "type": "Feature", "properties": { "point": "NUOVE", "nome": "TREBASELEGHE", "fase": "FASE 1" }, "geometry": { "type": "Point", "coordinates": [ 1737469.68053624080494, 5051468.487993414513767 ] } },
{ "type": "Feature", "properties": { "point": "NUOVE", "nome": "SAN TROVASO", "fase": "FASE 1" }, "geometry": { "type": "Point", "coordinates": [ 1752101.021354711148888, 5057347.354626497253776 ] } },
{ "type": "Feature", "properties": { "point": "SFMR", "nome": "FAGARE'", "fase": "FASE 3" }, "geometry": { "type": "Point", "coordinates": [ 1768131.355254818685353, 5067308.776153216138482 ] } },
{ "type": "Feature", "properties": { "point": "SFMR", "nome": "S. BIAGIO DI CALLALTA", "fase": "FASE 3" }, "geometry": { "type": "Point", "coordinates": [ 1763019.712583897169679, 5064810.213379225693643 ] } },
{ "type": "Feature", "properties": { "point": "SFMR", "nome": "PRAMAGGIORE", "fase": "FASE 3" }, "geometry": { "type": "Point", "coordinates": [ 1789007.181574055925012, 5075748.487944739870727 ] } },
{ "type": "Feature", "properties": { "point": "SFMR", "nome": "ANNONE V.TO", "fase": "FASE 3" }, "geometry": { "type": "Point", "coordinates": [ 1786314.679576333612204, 5075654.270747258327901 ] } },
{ "type": "Feature", "properties": { "point": "SFMR", "nome": "MOTTA DI LIVENZA", "fase": "FASE 3" }, "geometry": { "type": "Point", "coordinates": [ 1780391.628652717918158, 5075875.053759567439556 ] } },
{ "type": "Feature", "properties": { "point": "SFMR", "nome": "GORGO AL MONTICANO", "fase": "FASE 3" }, "geometry": { "type": "Point", "coordinates": [ 1776323.049398148665205, 5076258.778105137869716 ] } },
{ "type": "Feature", "properties": { "point": "SFMR", "nome": "PONTE DI PIAVE", "fase": "FASE 3" }, "geometry": { "type": "Point", "coordinates": [ 1769323.353255191585049, 5068682.391051175072789 ] } },
{ "type": "Feature", "properties": { "point": "SFMR", "nome": "OLMI DI SPERCENIGO", "fase": "FASE 3" }, "geometry": { "type": "Point", "coordinates": [ 1759316.898636782541871, 5063662.319222551770508 ] } },
{ "type": "Feature", "properties": { "point": "SFMR", "nome": "PERI", "fase": "OCCIDENTALE" }, "geometry": { "type": "Point", "coordinates": [ 1648080.011128467740491, 5057864.676984949037433 ] } },
{ "type": "Feature", "properties": { "point": "NUOVE", "nome": "RONCAJETTE", "fase": "FASE 3" }, "geometry": { "type": "Point", "coordinates": [ 1728762.005817354656756, 5031368.566092459484935 ] } },
{ "type": "Feature", "properties": { "point": "NUOVE", "nome": "PONTE S. NICOLO'", "fase": "FASE 3" }, "geometry": { "type": "Point", "coordinates": [ 1730485.549967700149864, 5027030.455306163989007 ] } },
{ "type": "Feature", "properties": { "point": "NUOVE", "nome": "AGRIPOLIS SUD - LEGNARO", "fase": "FASE 3" }, "geometry": { "type": "Point", "coordinates": [ 1731068.328436276176944, 5025330.485347088426352 ] } },
{ "type": "Feature", "properties": { "point": "NUOVE", "nome": "VIGOROVEA", "fase": "FASE 3" }, "geometry": { "type": "Point", "coordinates": [ 1734650.602689277380705, 5022896.033693782053888 ] } },
{ "type": "Feature", "properties": { "point": "NUOVE", "nome": "PIOVE DI S. OVEST", "fase": "FASE 3" }, "geometry": { "type": "Point", "coordinates": [ 1736727.360788260120898, 5021593.388510871678591 ] } },
{ "type": "Feature", "properties": { "point": "NUOVE", "nome": "PADOVA ZONA IND", "fase": "FASE 3" }, "geometry": { "type": "Point", "coordinates": [ 1728332.116097202757373, 5032765.793713875114918 ] } },
{ "type": "Feature", "properties": { "point": "NUOVE", "nome": "COREZZOLA EST", "fase": "FASE 3" }, "geometry": { "type": "Point", "coordinates": [ 1744180.391786446329206, 5013173.101562939584255 ] } },
{ "type": "Feature", "properties": { "point": "NUOVE", "nome": "CA' BIANCA", "fase": "FASE 3" }, "geometry": { "type": "Point", "coordinates": [ 1751009.637020180234686, 5009369.636192474514246 ] } },
{ "type": "Feature", "properties": { "point": "NUOVE", "nome": "AEROPORTO MARCO POLO", "fase": "FASE 2" }, "geometry": { "type": "Point", "coordinates": [ 1760960.710879399674013, 5044888.953470879234374 ] } },
{ "type": "Feature", "properties": { "point": "NUOVE", "nome": "ALBIGNASEGO", "fase": "COMPLEMENTARE" }, "geometry": { "type": "Point", "coordinates": [ 1724714.284031652845442, 5024788.105344106443226 ] } },
{ "type": "Feature", "properties": { "point": "NUOVE", "nome": "RUBANO", "fase": "FASE 3" }, "geometry": { "type": "Point", "coordinates": [ 1720862.532638843404129, 5035702.066527931019664 ] } },
{ "type": "Feature", "properties": { "point": "NUOVE", "nome": "S. ARTEMIO", "fase": "FASE 2" }, "geometry": { "type": "Point", "coordinates": [ 1754084.985109569504857, 5065099.220434297807515 ] } },
{ "type": "Feature", "properties": { "point": "NUOVE", "nome": "AEROPORTO DOSSOBUONO", "fase": "OCCIDENTALE" }, "geometry": { "type": "Point", "coordinates": [ 1649437.320880607003346, 5028949.346365676261485 ] } },
{ "type": "Feature", "properties": { "point": "NUOVE", "nome": "MADONNA DI DOSSOBUONO", "fase": "OCCIDENTALE" }, "geometry": { "type": "Point", "coordinates": [ 1651302.828837302513421, 5029598.40531393699348 ] } },
{ "type": "Feature", "properties": { "point": "NUOVE", "nome": "VILLAFRANCA Z.I.", "fase": "OCCIDENTALE" }, "geometry": { "type": "Point", "coordinates": [ 1646193.743788338964805, 5024868.298634388484061 ] } }
]
}
